[{"OBJECT_NAME":"JILIN-1 KUANFU 01","OBJECT_ID":"2020-003A","EPOCH":"2026-03-09T21:54:33.175008","MEAN_MOTION":15.10079256,"ECCENTRICITY":0.00082994,"INCLINATION":97.5094,"RA_OF_ASC_NODE":144.8213,"ARG_OF_PERICENTER":285.3859,"MEAN_ANOMALY":74.6453,"EPHEMERIS_TYPE":0,"CLASSIFICATION_TYPE":"U","NORAD_CAT_ID":45016,"ELEMENT_SET_NO":999,"REV_AT_EPOCH":34034,"BSTAR":0.00024799476,"MEAN_MOTION_DOT":3.977e-5,"MEAN_MOTION_DDOT":0},{"OBJECT_NAME":"STARLINK-3540","OBJECT_ID":"2022-016F","EPOCH":"2026-03-09T22:31:05.700288","MEAN_MOTION":15.08830295,"ECCENTRICITY":0.00016137,"INCLINATION":53.2182,"RA_OF_ASC_NODE":328.082,"ARG_OF_PERICENTER":89.8823,"MEAN_ANOMALY":270.2354,"EPHEMERIS_TYPE":0,"CLASSIFICATION_TYPE":"U","NORAD_CAT_ID":51719,"ELEMENT_SET_NO":999,"REV_AT_EPOCH":22346,"BSTAR":6.0846431e-5,"MEAN_MOTION_DOT":6.8e-6,"MEAN_MOTION_DDOT":0}]
